1 27424U 02022A   11275.76035808 -.00006759  00000-0 -14931-2 0   819
2 27424 098.2043 214.8446 0001294 078.0363 282.1235 14.57068040500732